ONEWEB-0607             
1 54671U 22166AF  24324.06003103  .00000121  00000+0  26049-3 0  9995
2 54671  87.9316 358.5353 0002104  99.4263 260.7109 13.21823135 96022
ONEWEB-0608             
1 54672U 22166AG  24323.83924413  .00000040  00000+0  64884-4 0  9996
2 54672  87.9299 358.6046 0002211 107.4201 252.7175 13.21827800 96009
ONEWEB-0610             
1 54673U 22166AH  24323.82033398  .00000070  00000+0  13909-3 0  9993
2 54673  87.9316 358.6006 0002138 109.4439 250.6926 13.21826887 95441
ONEWEB-0611             
1 54674U 22166AJ  24324.04111996  .00000136  00000+0  29801-3 0  9991
2 54674  87.9316 358.5549 0001783  85.0940 275.0398 13.21825491 95932
ONEWEB-0612             
1 54675U 22166AK  24323.90233378  .00000093  00000+0  19292-3 0  9990
2 54675  87.9315 358.5630 0002000 101.3224 258.8134 13.21828496 95433
ONEWEB-0615             
1 54676U 22166AL  24324.11049225 -.00001191  00000+0 -29157-2 0  9993
2 54676  87.9307 358.5468 0002173  97.7007 262.4373 13.21829776 95946
ONEWEB-0655             
1 54677U 22166AM  24324.08368317 -.00000575  00000+0 -14248-2 0  9996
2 54677  87.9323 358.5555 0002271  93.9137 266.2257 13.21825329 95935
ONEWEB-0659             
1 54678U 22166AN  24323.79826096  .00000044  00000+0  74898-4 0  9995
2 54678  87.9314 358.6165 0001700  95.3753 264.7575 13.21825393 95511
